[Satellite]
VERSION=1.1
NAME=DEBRISSAT-2
NICKNAME=DEBRISSAT-2
TLE1=1 43680U 98067PR  19317.58885183  .00033935  00000-0  28025-3 0  9991
TLE2=2 43680  51.6347 312.2340 0004228  21.9924 338.1254 15.69971130 79764
STATUS=0
